CTC1_L_00511001-01
1 85012U 25194QQ  26070.40839120  .00000000  00000+0  00000-0 0  9998
2 85012  97.5000   0.0000 0000000   0.0000   0.0000 15.10393183    14
CTC1_L_00511002-01
1 85013U 24990YH  26070.40839120  .00000000  00000+0  00000-0 0  9992
2 85013  97.5000   7.5000 0000000   0.0000  30.0000 15.10393183    10
CTC1_L_00511003-01
1 85014U 24269QX  26070.40839120  .00000000  00000+0  00000-0 0  9992
2 85014  97.5000  15.0000 0000000   0.0000  60.0000 15.10393183    18
CTC1_L_00511004-01
1 85015U 24178VO  26070.40839120  .00000000  00000+0  00000-0 0  9992
2 85015  97.5000  22.5000 0000000   0.0000  90.0000 15.10393183    15
CTC1_L_00511005-01
1 85016U 24960V   26070.40839120  .00000000  00000+0  00000-0 0  9992
2 85016  97.5000  30.0000 0000000   0.0000 120.0000 15.10393183    14
CTC1_L_00511006-01
1 85017U 22570GI  26070.40839120  .00000000  00000+0  00000-0 0  9998
2 85017  97.5000  37.5000 0000000   0.0000 150.0000 15.10393183    10
CTC1_L_00511007-01
1 85018U 22355YE  26070.40839120  .00000000  00000+0  00000-0 0  9990
2 85018  97.5000  45.0000 0000000   0.0000 180.0000 15.10393183    18
CTC1_L_00511008-01
1 85019U 23128AU  26070.40839120  .00000000  00000+0  00000-0 0  9990
2 85019  97.5000  52.5000 0000000   0.0000 210.0000 15.10393183    16
CTC1_L_00511009-01
1 85020U 26450HB  26070.40839120  .00000000  00000+0  00000-0 0  9993
2 85020  97.5000  60.0000 0000000   0.0000 240.0000 15.10393183    15
CTC1_L_00511010-01
1 85021U 23621KZ  26070.40839120  .00000000  00000+0  00000-0 0  9991
2 85021  97.5000  67.5000 0000000   0.0000 270.0000 15.10393183    11
CTC1_L_00511011-01
1 85022U 26924HV  26070.40839120  .00000000  00000+0  00000-0 0  9991
2 85022  97.5000  75.0000 0000000   0.0000 300.0000 15.10393183    10
CTC1_L_00511012-01
1 85023U 24569SZ  26070.40839120  .00000000  00000+0  00000-0 0  9995
2 85023  97.5000  82.5000 0000000   0.0000 330.0000 15.10393183    17
CTC1_L_00511013-01
1 85024U 23539YL  26070.40839120  .00000000  00000+0  00000-0 0  9992
2 85024  97.5000  90.0000 0000000   0.0000   0.0000 15.10393183    16
CTC1_L_00511014-01
1 85025U 24565IN  26070.40839120  .00000000  00000+0  00000-0 0  9993
2 85025  97.5000  97.5000 0000000   0.0000  30.0000 15.10393183    12
CTC1_L_00511015-01
1 85026U 25168XF  26070.40839120  .00000000  00000+0  00000-0 0  9994
2 85026  97.5000 105.0000 0000000   0.0000  60.0000 15.10393183    11
CTC1_L_00511016-01
1 85027U 25253P   26070.40839120  .00000000  00000+0  00000-0 0  9990
2 85027  97.5000 112.5000 0000000   0.0000  90.0000 15.10393183    18
CTC1_L_00511017-01
1 85028U 24046TK  26070.40839120  .00000000  00000+0  00000-0 0  9990
2 85028  97.5000 120.0000 0000000   0.0000 120.0000 15.10393183    17
CTC1_L_00511018-01
1 85029U 23162XB  26070.40839120  .00000000  00000+0  00000-0 0  9999
2 85029  97.5000 127.5000 0000000   0.0000 150.0000 15.10393183    13
CTC1_L_00511019-01
1 85030U 26272GW  26070.40839120  .00000000  00000+0  00000-0 0  9996
2 85030  97.5000 135.0000 0000000   0.0000 180.0000 15.10393183    12
CTC1_L_00511020-01
1 85031U 25311ED  26070.40839120  .00000000  00000+0  00000-0 0  9990
2 85031  97.5000 142.5000 0000000   0.0000 210.0000 15.10393183    10
CTC1_L_00511021-01
1 85032U 22837PZ  26070.40839120  .00000000  00000+0  00000-0 0  9991
2 85032  97.5000 150.0000 0000000   0.0000 240.0000 15.10393183    18
CTC1_L_00511022-01
1 85033U 25029LG  26070.40839120  .00000000  00000+0  00000-0 0  9998
2 85033  97.5000 157.5000 0000000   0.0000 270.0000 15.10393183    14
CTC1_L_00511023-01
1 85034U 26974DR  26070.40839120  .00000000  00000+0  00000-0 0  9999
2 85034  97.5000 165.0000 0000000   0.0000 300.0000 15.10393183    13
CTC1_L_00511024-01
1 85035U 22948DJ  26070.40839120  .00000000  00000+0  00000-0 0  9997
2 85035  97.5000 172.5000 0000000   0.0000 330.0000 15.10393183    10
CTC1_L_00511025-01
1 85036U 22883QG  26070.40839120  .00000000  00000+0  00000-0 0  9996
2 85036  97.5000 180.0000 0000000   0.0000   0.0000 15.10393183    19
CTC1_L_00511026-01
1 85037U 25436BQ  26070.40839120  .00000000  00000+0  00000-0 0  9994
2 85037  97.5000 187.5000 0000000   0.0000  30.0000 15.10393183    15
CTC1_L_00511027-01
1 85038U 24560NV  26070.40839120  .00000000  00000+0  00000-0 0  9992
2 85038  97.5000 195.0000 0000000   0.0000  60.0000 15.10393183    13
CTC1_L_00511028-01
1 85039U 25819ZV  26070.40839120  .00000000  00000+0  00000-0 0  9991
2 85039  97.5000 202.5000 0000000   0.0000  90.0000 15.10393183    11
CTC1_L_00511029-01
1 85040U 24364QO  26070.40839120  .00000000  00000+0  00000-0 0  9997
2 85040  97.5000 210.0000 0000000   0.0000 120.0000 15.10393183    11
CTC1_L_00511030-01
1 85041U 22658ZL  26070.40839120  .00000000  00000+0  00000-0 0  9992
2 85041  97.5000 217.5000 0000000   0.0000 150.0000 15.10393183    17
CTC1_L_00511031-01
1 85042U 24457VB  26070.40839120  .00000000  00000+0  00000-0 0  9992
2 85042  97.5000 225.0000 0000000   0.0000 180.0000 15.10393183    15
CTC1_L_00511032-01
1 85043U 23282WM  26070.40839120  .00000000  00000+0  00000-0 0  9998
2 85043  97.5000 232.5000 0000000   0.0000 210.0000 15.10393183    13
CTC1_L_00511033-01
1 85044U 22693GC  26070.40839120  .00000000  00000+0  00000-0 0  9994
2 85044  97.5000 240.0000 0000000   0.0000 240.0000 15.10393183    11
CTC1_L_00511034-01
1 85045U 22450DX  26070.40839120  .00000000  00000+0  00000-0 0  9996
2 85045  97.5000 247.5000 0000000   0.0000 270.0000 15.10393183    17
CTC1_L_00511035-01
1 85046U 25362HY  26070.40839120  .00000000  00000+0  00000-0 0  9992
2 85046  97.5000 255.0000 0000000   0.0000 300.0000 15.10393183    16
CTC1_L_00511036-01
1 85047U 25912DA  26070.40839120  .00000000  00000+0  00000-0 0  9994
2 85047  97.5000 262.5000 0000000   0.0000 330.0000 15.10393183    13
CTC1_L_00511037-01
1 85048U 22291VZ  26070.40839120  .00000000  00000+0  00000-0 0  9992
2 85048  97.5000 270.0000 0000000   0.0000   0.0000 15.10393183    12
CTC1_L_00511038-01
1 85049U 23942KI  26070.40839120  .00000000  00000+0  00000-0 0  9997
2 85049  97.5000 277.5000 0000000   0.0000  30.0000 15.10393183    18
CTC1_L_00511039-01
1 85050U 23142CX  26070.40839120  .00000000  00000+0  00000-0 0  9991
2 85050  97.5000 285.0000 0000000   0.0000  60.0000 15.10393183    17
CTC1_L_00511040-01
1 85051U 23409OK  26070.40839120  .00000000  00000+0  00000-0 0  9998
2 85051  97.5000 292.5000 0000000   0.0000  90.0000 15.10393183    14
CTC1_L_00511041-01
1 85052U 24768KV  26070.40839120  .00000000  00000+0  00000-0 0  9998
2 85052  97.5000 300.0000 0000000   0.0000 120.0000 15.10393183    14
CTC1_L_00511042-01
1 85053U 23783WA  26070.40839120  .00000000  00000+0  00000-0 0  9995
2 85053  97.5000 307.5000 0000000   0.0000 150.0000 15.10393183    10
CTC1_L_00511043-01
1 85054U 25455YH  26070.40839120  .00000000  00000+0  00000-0 0  9994
2 85054  97.5000 315.0000 0000000   0.0000 180.0000 15.10393183    18
CTC1_L_00511044-01
1 85055U 23889XF  26070.40839120  .00000000  00000+0  00000-0 0  9994
2 85055  97.5000 322.5000 0000000   0.0000 210.0000 15.10393183    16
CTC1_L_00511045-01
1 85056U 24947SB  26070.40839120  .00000000  00000+0  00000-0 0  9991
2 85056  97.5000 330.0000 0000000   0.0000 240.0000 15.10393183    14
CTC1_L_00511046-01
1 85057U 25515LL  26070.40839120  .00000000  00000+0  00000-0 0  9994
2 85057  97.5000 337.5000 0000000   0.0000 270.0000 15.10393183    10
CTC1_L_00511047-01
1 85058U 22215AU  26070.40839120  .00000000  00000+0  00000-0 0  9999
2 85058  97.5000 345.0000 0000000   0.0000 300.0000 15.10393183    19
CTC1_L_00511048-01
1 85059U 26306DL  26070.40839120  .00000000  00000+0  00000-0 0  9995
2 85059  97.5000 352.5000 0000000   0.0000 330.0000 15.10393183    16
